STARLINK-31630          
1 59271U 24050T   26068.56880718 -.00002063  00000+0 -57526-4 0  9991
2 59271  53.1600 168.5079 0001409  92.3163 267.7999 15.30200807110710
STARLINK-34465          
1 64438U 25130A   26068.36365977  .00019635  00000+0  67326-3 0  9994
2 64438  53.1594  90.0207 0001239 108.4146 251.6990 15.30202086 40655
